[
    {
        "Altitude(m)": 604221.1919538477,
        "Argument of Periapsis(deg)": 0.0,
        "Eccentricity": 0.0,
        "Inclination(deg)": 60.0,
        "Latitude(deg)": 14.11717529285547,
        "Longitude(deg)": -76.66585427257138,
        "Mean Anomaly(deg)": 16.3636,
        "RAAN(deg)": 15.0,
        "Satellite Name": "Test1 67",
        "Satellite Number": 67,
        "Semi-Major Axis(m)": 6980739.136638005,
        "Time(s)": 0
    },
    {
        "Altitude(m)": 604235.3324686392,
        "Argument of Periapsis(deg)": 0.00010418945913296404,
        "Eccentricity": 0.0,
        "Inclination(deg)": 60.0,
        "Latitude(deg)": 14.651572224915048,
        "Longitude(deg)": -76.37740773913808,
        "Mean Anomaly(deg)": 16.983706145461834,
        "RAAN(deg)": 14.999579950860259,
        "Satellite Name": "Test1 67",
        "Satellite Number": 67,
        "Semi-Major Axis(m)": 6980739.136638005,
        "Time(s)": 10
    }
]